start=new Date('2023-02-09T00:00:00.000Z').valueOf();
sats=[{"INCLINATION":"53.2172","TLE_LINE1":"1 54009U 22125AX  23039.77100121  .00001338  00000-0  10211-3 0  9999","DECAY_DATE":null,"ARG_OF_PERICENTER":"75.3932","MEAN_MOTION_DDOT":"0.0000000000000","OBJECT_TYPE":"PAYLOAD","REF_FRAME":"TEME","COUNTRY_CODE":"US","RA_OF_ASC_NODE":"223.6785","REV_AT_EPOCH":"1964","FILE":"3780893","GP_ID":"224861883","ELEMENT_SET_NO":"999","OBJECT_NAME":"STARLINK-5099","MEAN_MOTION_DOT":"0.00001338","CLASSIFICATION_TYPE":"U","PERIAPSIS":"538.695","SITE":"AFWTR","ECCENTRICITY":"0.00015050","LAUNCH_DATE":"2022-10-05","NORAD_CAT_ID":"54009","PERIOD":"95.437","MEAN_ANOMALY":"284.7227","EPHEMERIS_TYPE":"0","EPOCH":"2023-02-08T18:30:14.504544","BSTAR":"0.00010211000000","SEMIMAJOR_AXIS":"6917.872","CENTER_NAME":"EARTH","OBJECT_ID":"2022-125AX","TIME_SYSTEM":"UTC","MEAN_MOTION":"15.08842881","RCS_SIZE":"LARGE","MEAN_ELEMENT_THEORY":"SGP4","APOAPSIS":"540.778","TLE_LINE2":"2 54009  53.2172 223.6785 0001505  75.3932 284.7227 15.08842881 19640"},{"TLE_LINE1":"1 54010U 22125AY  23039.83079004  .00008979  00000-0  58125-3 0  9997","INCLINATION":"53.2158","DECAY_DATE":null,"MEAN_MOTION_DDOT":"0.0000000000000","ARG_OF_PERICENTER":"91.6423","RA_OF_ASC_NODE":"213.3803","GP_ID":"224862633","FILE":"3780893","REV_AT_EPOCH":"1979","ELEMENT_SET_NO":"999","REF_FRAME":"TEME","OBJECT_TYPE":"PAYLOAD","COUNTRY_CODE":"US","CLASSIFICATION_TYPE":"U","PERIAPSIS":"538.953","ECCENTRICITY":"0.00010660","SITE":"AFWTR","LAUNCH_DATE":"2022-10-05","PERIOD":"95.436","NORAD_CAT_ID":"54010","OBJECT_NAME":"STARLINK-5127","MEAN_MOTION_DOT":"0.00008979","SEMIMAJOR_AXIS":"6917.826","CENTER_NAME":"EARTH","OBJECT_ID":"2022-125AY","BSTAR":"0.00058125000000","MEAN_MOTION":"15.08857952","TIME_SYSTEM":"UTC","MEAN_ELEMENT_THEORY":"SGP4","APOAPSIS":"540.428","RCS_SIZE":"LARGE","TLE_LINE2":"2 54010  53.2158 213.3803 0001066  91.6423 268.4691 15.08857952 19796","MEAN_ANOMALY":"268.4691","EPHEMERIS_TYPE":"0","EPOCH":"2023-02-08T19:56:20.259456"},{"TLE_LINE1":"1 54011U 22125AZ  23039.75358153  .00000716  00000-0  63084-4 0  9996","INCLINATION":"53.2187","ARG_OF_PERICENTER":"87.3057","MEAN_MOTION_DDOT":"0.0000000000000","DECAY_DATE":null,"REF_FRAME":"TEME","OBJECT_TYPE":"PAYLOAD","COUNTRY_CODE":"US","RA_OF_ASC_NODE":"214.2961","ELEMENT_SET_NO":"999","GP_ID":"224861381","REV_AT_EPOCH":"1977","FILE":"3780893","OBJECT_NAME":"STARLINK-5124","MEAN_MOTION_DOT":"0.00000716","SITE":"AFWTR","ECCENTRICITY":"0.00012110","CLASSIFICATION_TYPE":"U","PERIAPSIS":"538.888","PERIOD":"95.437","NORAD_CAT_ID":"54011","LAUNCH_DATE":"2022-10-05","MEAN_ANOMALY":"272.8073","EPOCH":"2023-02-08T18:05:09.444192","EPHEMERIS_TYPE":"0","MEAN_MOTION":"15.08846515","TIME_SYSTEM":"UTC","SEMIMAJOR_AXIS":"6917.860","OBJECT_ID":"2022-125AZ","CENTER_NAME":"EARTH","BSTAR":"0.00006308400000","TLE_LINE2":"2 54011  53.2187 214.2961 0001211  87.3057 272.8073 15.08846515 19775","MEAN_ELEMENT_THEORY":"SGP4","APOAPSIS":"540.563","RCS_SIZE":"LARGE"},{"PERIAPSIS":"539.070","CLASSIFICATION_TYPE":"U","ECCENTRICITY":"0.00010210","SITE":"AFWTR","LAUNCH_DATE":"2022-10-05","NORAD_CAT_ID":"54012","PERIOD":"95.438","OBJECT_NAME":"STARLINK-5126","MEAN_MOTION_DOT":"0.00005419","BSTAR":"0.00035839000000","CENTER_NAME":"EARTH","SEMIMAJOR_AXIS":"6917.911","OBJECT_ID":"2022-125BA","TIME_SYSTEM":"UTC","MEAN_MOTION":"15.08829845","RCS_SIZE":"LARGE","APOAPSIS":"540.483","MEAN_ELEMENT_THEORY":"SGP4","TLE_LINE2":"2 54012  53.2160 213.8388 0001021  93.6199 266.4910 15.08829845 19788","MEAN_ANOMALY":"266.4910","EPHEMERIS_TYPE":"0","EPOCH":"2023-02-08T19:03:25.623648","INCLINATION":"53.2160","TLE_LINE1":"1 54012U 22125BA  23039.79404657  .00005419  00000-0  35839-3 0  9993","DECAY_DATE":null,"MEAN_MOTION_DDOT":"0.0000000000000","ARG_OF_PERICENTER":"93.6199","RA_OF_ASC_NODE":"213.8388","REV_AT_EPOCH":"1978","FILE":"3780893","GP_ID":"224861132","ELEMENT_SET_NO":"999","OBJECT_TYPE":"PAYLOAD","REF_FRAME":"TEME","COUNTRY_CODE":"US"},{"MEAN_MOTION_DOT":"0.00000927","OBJECT_NAME":"STARLINK-5098","PERIOD":"95.437","NORAD_CAT_ID":"54013","LAUNCH_DATE":"2022-10-05","SITE":"AFWTR","ECCENTRICITY":"0.00012890","PERIAPSIS":"538.843","CLASSIFICATION_TYPE":"U","EPOCH":"2023-02-08T19:14:01.005792","EPHEMERIS_TYPE":"0","MEAN_ANOMALY":"272.4858","TLE_LINE2":"2 54013  53.2174 213.8838 0001289  87.6282 272.4858 15.08843457 19789","APOAPSIS":"540.627","MEAN_ELEMENT_THEORY":"SGP4","RCS_SIZE":"LARGE","MEAN_MOTION":"15.08843457","TIME_SYSTEM":"UTC","CENTER_NAME":"EARTH","SEMIMAJOR_AXIS":"6917.870","OBJECT_ID":"2022-125BB","BSTAR":"0.00007633500000","MEAN_MOTION_DDOT":"0.0000000000000","ARG_OF_PERICENTER":"87.6282","DECAY_DATE":null,"TLE_LINE1":"1 54013U 22125BB  23039.80140053  .00000927  00000-0  76335-4 0  9999","INCLINATION":"53.2174","COUNTRY_CODE":"US","REF_FRAME":"TEME","OBJECT_TYPE":"PAYLOAD","ELEMENT_SET_NO":"999","GP_ID":"224862383","FILE":"3780893","REV_AT_EPOCH":"1978","RA_OF_ASC_NODE":"213.8838"},{"INCLINATION":"53.2183","TLE_LINE1":"1 54014U 22125BC  23039.79771671  .00000170  00000-0  28792-4 0  9998","DECAY_DATE":null,"MEAN_MOTION_DDOT":"0.0000000000000","ARG_OF_PERICENTER":"87.7085","RA_OF_ASC_NODE":"213.8620","FILE":"3780893","REV_AT_EPOCH":"1978","GP_ID":"224862134","ELEMENT_SET_NO":"999","OBJECT_TYPE":"PAYLOAD","REF_FRAME":"TEME","COUNTRY_CODE":"US","CLASSIFICATION_TYPE":"U","PERIAPSIS":"538.851","ECCENTRICITY":"0.00012860","SITE":"AFWTR","LAUNCH_DATE":"2022-10-05","NORAD_CAT_ID":"54014","PERIOD":"95.437","OBJECT_NAME":"STARLINK-5116","MEAN_MOTION_DOT":"0.00000170","BSTAR":"0.00002879200000","OBJECT_ID":"2022-125BC","SEMIMAJOR_AXIS":"6917.876","CENTER_NAME":"EARTH","TIME_SYSTEM":"UTC","MEAN_MOTION":"15.08841500","RCS_SIZE":"LARGE","APOAPSIS":"540.630","MEAN_ELEMENT_THEORY":"SGP4","TLE_LINE2":"2 54014  53.2183 213.8620 0001286  87.7085 272.4054 15.08841500 19783","MEAN_ANOMALY":"272.4054","EPHEMERIS_TYPE":"0","EPOCH":"2023-02-08T19:08:42.723744"},{"EPHEMERIS_TYPE":"0","EPOCH":"2023-02-08T18:52:48.313920","MEAN_ANOMALY":"259.2420","RCS_SIZE":"LARGE","MEAN_ELEMENT_THEORY":"SGP4","APOAPSIS":"540.774","TLE_LINE2":"2 54015  53.2204 213.7941 0001460 100.8736 259.2420 15.08833933 19788","BSTAR":"-0.00002512800000","SEMIMAJOR_AXIS":"6917.899","OBJECT_ID":"2022-125BD","CENTER_NAME":"EARTH","TIME_SYSTEM":"UTC","MEAN_MOTION":"15.08833933","MEAN_MOTION_DOT":"-0.00000688","OBJECT_NAME":"STARLINK-5055","LAUNCH_DATE":"2022-10-05","NORAD_CAT_ID":"54015","PERIOD":"95.438","PERIAPSIS":"538.754","CLASSIFICATION_TYPE":"U","SITE":"AFWTR","ECCENTRICITY":"0.00014600","COUNTRY_CODE":"US","OBJECT_TYPE":"PAYLOAD","REF_FRAME":"TEME","FILE":"3780893","REV_AT_EPOCH":"1978","GP_ID":"224860882","ELEMENT_SET_NO":"999","RA_OF_ASC_NODE":"213.7941","DECAY_DATE":null,"MEAN_MOTION_DDOT":"0.0000000000000","ARG_OF_PERICENTER":"100.8736","INCLINATION":"53.2204","TLE_LINE1":"1 54015U 22125BD  23039.78667030 -.00000688  00000-0 -25128-4 0  9997"},{"DECAY_DATE":null,"MEAN_MOTION_DDOT":"0.0000000000000","ARG_OF_PERICENTER":"99.8366","TLE_LINE1":"1 54051U 22136A   23039.35798550  .00018760  00000-0  11925-2 0  9990","INCLINATION":"53.2181","GP_ID":"224826074","FILE":"3780324","REV_AT_EPOCH":"1695","ELEMENT_SET_NO":"999","RA_OF_ASC_NODE":"356.1699","COUNTRY_CODE":"US","REF_FRAME":"TEME","OBJECT_TYPE":"PAYLOAD","LAUNCH_DATE":"2022-10-20","PERIOD":"95.435","NORAD_CAT_ID":"54051","PERIAPSIS":"538.741","CLASSIFICATION_TYPE":"U","SITE":"AFETR","ECCENTRICITY":"0.00012970","MEAN_MOTION_DOT":"0.00018760","OBJECT_NAME":"STARLINK-5195","APOAPSIS":"540.535","MEAN_ELEMENT_THEORY":"SGP4","RCS_SIZE":"LARGE","TLE_LINE2":"2 54051  53.2181 356.1699 0001297  99.8366 260.2772 15.08875157 16950","SEMIMAJOR_AXIS":"6917.773","CENTER_NAME":"EARTH","OBJECT_ID":"2022-136A","BSTAR":"0.00119250000000","MEAN_MOTION":"15.08875157","TIME_SYSTEM":"UTC","EPHEMERIS_TYPE":"0","EPOCH":"2023-02-08T08:35:29.947200","MEAN_ANOMALY":"260.2772"},{"MEAN_ANOMALY":"47.1888","EPHEMERIS_TYPE":"0","EPOCH":"2023-02-08T22:00:00.999936","CENTER_NAME":"EARTH","SEMIMAJOR_AXIS":"6780.797","OBJECT_ID":"2022-136B","BSTAR":"-0.01537400000000","MEAN_MOTION":"15.54825370","TIME_SYSTEM":"UTC","MEAN_ELEMENT_THEORY":"SGP4","APOAPSIS":"403.464","RCS_SIZE":"LARGE","TLE_LINE2":"2 54052  53.2151 317.2983 0001182  86.7092  47.1888 15.54825370  1302","OBJECT_NAME":"STARLINK-5189","MEAN_MOTION_DOT":"-0.00943385","PERIAPSIS":"401.861","CLASSIFICATION_TYPE":"U","SITE":"AFETR","ECCENTRICITY":"0.00011820","LAUNCH_DATE":"2022-10-20","PERIOD":"92.615","NORAD_CAT_ID":"54052","REF_FRAME":"TEME","OBJECT_TYPE":"PAYLOAD","COUNTRY_CODE":"US","RA_OF_ASC_NODE":"317.2983","GP_ID":"224862138","FILE":"3780893","REV_AT_EPOCH":"130","ELEMENT_SET_NO":"999","TLE_LINE1":"1 54052U 22136B   23039.91667824 -.00943385  00000-0 -15374-1 0  9995","INCLINATION":"53.2151","DECAY_DATE":null,"MEAN_MOTION_DDOT":"0.0000000000000","ARG_OF_PERICENTER":"86.7092"},{"MEAN_ELEMENT_THEORY":"SGP4","APOAPSIS":"540.723","RCS_SIZE":"LARGE","TLE_LINE2":"2 54053  53.2197 356.1501 0001511 100.5533 259.5629 15.08862069 16956","CENTER_NAME":"EARTH","SEMIMAJOR_AXIS":"6917.813","OBJECT_ID":"2022-136C","BSTAR":"0.00041256000000","MEAN_MOTION":"15.08862069","TIME_SYSTEM":"UTC","EPHEMERIS_TYPE":"0","EPOCH":"2023-02-08T08:30:11.650464","MEAN_ANOMALY":"259.5629","LAUNCH_DATE":"2022-10-20","PERIOD":"95.436","NORAD_CAT_ID":"54053","CLASSIFICATION_TYPE":"U","PERIAPSIS":"538.633","ECCENTRICITY":"0.00015110","SITE":"AFETR","MEAN_MOTION_DOT":"0.00006288","OBJECT_NAME":"STARLINK-5176","GP_ID":"224825572","FILE":"3780324","REV_AT_EPOCH":"1695","ELEMENT_SET_NO":"999","RA_OF_ASC_NODE":"356.1501","COUNTRY_CODE":"US","REF_FRAME":"TEME","OBJECT_TYPE":"PAYLOAD","DECAY_DATE":null,"MEAN_MOTION_DDOT":"0.0000000000000","ARG_OF_PERICENTER":"100.5533","TLE_LINE1":"1 54053U 22136C   23039.35430151  .00006288  00000-0  41256-3 0  9995","INCLINATION":"53.2197"}];
